{
  "type": "FeatureCollection",
  "name": "demo_candidates",
  "crs": {"type": "name", "properties": {"name": "urn:ogc:def:crs:OGC:1.3:CRS84"}},
  "features": [
    {"type":"Feature","properties":{"land_id":"YC-DEMO-001","area_mu":128.4,"historical_class":"crops","current_class":"grass","abandoned_confidence":0.72,"protected_overlap":false,"climate_pass":true,"soil_pass":true,"irrigation_available":true,"cost_score":82,"market_score":76,"risk_score":71,"policy_score":65,"data_completeness":0.68},"geometry":{"type":"Polygon","coordinates":[[[118.250,25.340],[118.263,25.340],[118.263,25.349],[118.250,25.349],[118.250,25.340]]]}},
    {"type":"Feature","properties":{"land_id":"YC-DEMO-002","area_mu":86.2,"historical_class":"crops","current_class":"shrub","abandoned_confidence":0.66,"protected_overlap":false,"climate_pass":true,"soil_pass":true,"irrigation_available":false,"cost_score":74,"market_score":84,"risk_score":78,"policy_score":65,"data_completeness":0.64},"geometry":{"type":"Polygon","coordinates":[[[118.285,25.305],[118.296,25.305],[118.296,25.313],[118.285,25.313],[118.285,25.305]]]}},
    {"type":"Feature","properties":{"land_id":"YC-DEMO-003","area_mu":214.7,"historical_class":"crops","current_class":"grass","abandoned_confidence":0.77,"protected_overlap":false,"climate_pass":true,"soil_pass":true,"irrigation_available":true,"cost_score":68,"market_score":70,"risk_score":86,"policy_score":72,"data_completeness":0.71},"geometry":{"type":"Polygon","coordinates":[[[118.315,25.370],[118.331,25.370],[118.331,25.381],[118.315,25.381],[118.315,25.370]]]}},
    {"type":"Feature","properties":{"land_id":"YC-DEMO-004","area_mu":45.5,"historical_class":"crops","current_class":"bare","abandoned_confidence":0.61,"protected_overlap":false,"climate_pass":true,"soil_pass":true,"irrigation_available":false,"cost_score":88,"market_score":67,"risk_score":62,"policy_score":65,"data_completeness":0.58},"geometry":{"type":"Polygon","coordinates":[[[118.205,25.395],[118.213,25.395],[118.213,25.401],[118.205,25.401],[118.205,25.395]]]}},
    {"type":"Feature","properties":{"land_id":"YC-DEMO-005","area_mu":302.1,"historical_class":"crops","current_class":"shrub","abandoned_confidence":0.69,"protected_overlap":false,"climate_pass":true,"soil_pass":true,"irrigation_available":true,"cost_score":59,"market_score":63,"risk_score":91,"policy_score":78,"data_completeness":0.73},"geometry":{"type":"Polygon","coordinates":[[[118.365,25.325],[118.385,25.325],[118.385,25.339],[118.365,25.339],[118.365,25.325]]]}},
    {"type":"Feature","properties":{"land_id":"YC-DEMO-006","area_mu":171.8,"historical_class":"crops","current_class":"grass","abandoned_confidence":0.74,"protected_overlap":true,"climate_pass":true,"soil_pass":true,"irrigation_available":true,"cost_score":77,"market_score":72,"risk_score":55,"policy_score":65,"data_completeness":0.67},"geometry":{"type":"Polygon","coordinates":[[[118.405,25.390],[118.419,25.390],[118.419,25.401],[118.405,25.401],[118.405,25.390]]]}},
    {"type":"Feature","properties":{"land_id":"YC-DEMO-007","area_mu":96.3,"historical_class":"crops","current_class":"bare","abandoned_confidence":0.64,"protected_overlap":false,"climate_pass":true,"soil_pass":true,"irrigation_available":true,"cost_score":91,"market_score":89,"risk_score":64,"policy_score":70,"data_completeness":0.75},"geometry":{"type":"Polygon","coordinates":[[[118.225,25.285],[118.236,25.285],[118.236,25.294],[118.225,25.294],[118.225,25.285]]]}},
    {"type":"Feature","properties":{"land_id":"YC-DEMO-008","area_mu":153.9,"historical_class":"crops","current_class":"grass","abandoned_confidence":0.71,"protected_overlap":false,"climate_pass":true,"soil_pass":true,"irrigation_available":false,"cost_score":71,"market_score":75,"risk_score":81,"policy_score":68,"data_completeness":0.69},"geometry":{"type":"Polygon","coordinates":[[[118.345,25.420],[118.359,25.420],[118.359,25.430],[118.345,25.430],[118.345,25.420]]]}}
  ]
}
